<?xml version="1.0" encoding="UTF-8"?>
<kml xmlns="http://www.opengis.net/kml/2.2">
  <Document>
    <name>Utah Grid Cells</name>
    <Style id="poly-FFD600-1200-76-normal">
      <LineStyle>
        <color>ff00d6ff</color>
        <width>1.2</width>
      </LineStyle>
      <PolyStyle>
        <color>4c00d6ff</color>
        <fill>1</fill>
        <outline>1</outline>
      </PolyStyle>
    </Style>
    <Style id="poly-FFD600-1200-76-highlight">
      <LineStyle>
        <color>ff00d6ff</color>
        <width>1.8</width>
      </LineStyle>
      <PolyStyle>
        <color>4c00d6ff</color>
        <fill>1</fill>
        <outline>1</outline>
      </PolyStyle>
    </Style>
    <StyleMap id="poly-FFD600-1200-76">
      <Pair>
        <key>normal</key>
        <styleUrl>#poly-FFD600-1200-76-normal</styleUrl>
      </Pair>
      <Pair>
        <key>highlight</key>
        <styleUrl>#poly-FFD600-1200-76-highlight</styleUrl>
      </Pair>
    </StyleMap>
    <Placemark>
      <name>UT_11</name>
      <description><![CDATA[UT    <br>       <br>   OID   1    <br>   State   UT    <br>   GridIDNo   11    <br>   Grid_ID   UT_11    <br>   Grid_ID_txt   11    <br>   Adoptions   <Null>    <br>   Static Grid ID   UT_11]]></description>
      <styleUrl>#poly-FFD600-1200-76</styleUrl>
      <Polygon>
        <outerBoundaryIs>
          <LinearRing>
            <tessellate>1</tessellate>
            <coordinates>
              -111.492197,41.345667,0
              -112.103725,41.351045,0
              -112.110877,40.890188,0
              -111.499158,40.884854,0
              -111.492197,41.345667,0
            </coordinates>
          </LinearRing>
        </outerBoundaryIs>
      </Polygon>
    </Placemark>
    <Placemark>
      <name>UT_32</name>
      <description><![CDATA[UT    <br>       <br>   OID   2    <br>   State   UT    <br>   GridIDNo   32    <br>   Grid_ID   UT_32    <br>   Grid_ID_txt   32    <br>   Adoptions   <Null>    <br>   Static Grid ID   UT_32]]></description>
      <styleUrl>#poly-FFD600-1200-76</styleUrl>
      <Polygon>
        <outerBoundaryIs>
          <LinearRing>
            <tessellate>1</tessellate>
            <coordinates>
              -111.512759,39.953103,0
              -112.12486,39.958348,0
              -112.131691,39.487376,0
              -111.519402,39.482177,0
              -111.512759,39.953103,0
            </coordinates>
          </LinearRing>
        </outerBoundaryIs>
      </Polygon>
    </Placemark>
    <Placemark>
      <name>UT_49</name>
      <description><![CDATA[UT    <br>       <br>   OID   3    <br>   State   UT    <br>   GridIDNo   49    <br>   Grid_ID   UT_49    <br>   Grid_ID_txt   49    <br>   Adoptions   <Null>    <br>   Static Grid ID   UT_49]]></description>
      <styleUrl>#poly-FFD600-1200-76</styleUrl>
      <Polygon>
        <outerBoundaryIs>
          <LinearRing>
            <tessellate>1</tessellate>
            <coordinates>
              -110.913569,39.002887,0
              -111.52594,39.007894,0
              -111.532375,38.530264,0
              -110.919816,38.525304,0
              -110.913569,39.002887,0
            </coordinates>
          </LinearRing>
        </outerBoundaryIs>
      </Polygon>
    </Placemark>
    <Placemark>
      <name>UT_38</name>
      <description><![CDATA[UT    <br>       <br>   OID   4    <br>   State   UT    <br>   GridIDNo   38    <br>   Grid_ID   UT_38    <br>   Grid_ID_txt   38    <br>   Adoptions   <Null>    <br>   Static Grid ID   UT_38]]></description>
      <styleUrl>#poly-FFD600-1200-76</styleUrl>
      <Polygon>
        <outerBoundaryIs>
          <LinearRing>
            <tessellate>1</tessellate>
            <coordinates>
              -112.744086,39.492722,0
              -113.356588,39.498212,0
              -113.363686,39.023791,0
              -112.750998,39.018347,0
              -112.744086,39.492722,0
            </coordinates>
          </LinearRing>
        </outerBoundaryIs>
      </Polygon>
    </Placemark>
    <Placemark>
      <name>UT_40</name>
      <description><![CDATA[UT    <br>       <br>   OID   5    <br>   State   UT    <br>   GridIDNo   40    <br>   Grid_ID   UT_40    <br>   Grid_ID_txt   40    <br>   Adoptions   <Null>    <br>   Static Grid ID   UT_40]]></description>
      <styleUrl>#poly-FFD600-1200-76</styleUrl>
      <Polygon>
        <outerBoundaryIs>
          <LinearRing>
            <tessellate>1</tessellate>
            <coordinates>
              -111.519402,39.482177,0
              -112.131691,39.487376,0
              -112.138416,39.013048,0
              -111.52594,39.007894,0
              -111.519402,39.482177,0
            </coordinates>
          </LinearRing>
        </outerBoundaryIs>
      </Polygon>
    </Placemark>
    <Placemark>
      <name>UT_24</name>
      <description><![CDATA[UT    <br>       <br>   OID   6    <br>   State   UT    <br>   GridIDNo   24    <br>   Grid_ID   UT_24    <br>   Grid_ID_txt   24    <br>   Adoptions   <Null>    <br>   Static Grid ID   UT_24]]></description>
      <styleUrl>#poly-FFD600-1200-76</styleUrl>
      <Polygon>
        <outerBoundaryIs>
          <LinearRing>
            <tessellate>1</tessellate>
            <coordinates>
              -111.506011,40.420664,0
              -112.117922,40.425954,0
              -112.12486,39.958348,0
              -111.512759,39.953103,0
              -111.506011,40.420664,0
            </coordinates>
          </LinearRing>
        </outerBoundaryIs>
      </Polygon>
    </Placemark>
    <Placemark>
      <name>UT_5</name>
      <description><![CDATA[UT    <br>       <br>   OID   7    <br>   State   UT    <br>   GridIDNo   5    <br>   Grid_ID   UT_5    <br>   Grid_ID_txt   5    <br>   Adoptions   <Null>    <br>   Static Grid ID   UT_5]]></description>
      <styleUrl>#poly-FFD600-1200-76</styleUrl>
      <Polygon>
        <outerBoundaryIs>
          <LinearRing>
            <tessellate>1</tessellate>
            <coordinates>
              -112.096464,41.808518,0
              -112.707907,41.814084,0
              -112.715361,41.356568,0
              -112.103725,41.351045,0
              -112.096464,41.808518,0
            </coordinates>
          </LinearRing>
        </outerBoundaryIs>
      </Polygon>
    </Placemark>
    <Placemark>
      <name>UT_59</name>
      <description><![CDATA[UT    <br>       <br>   OID   8    <br>   State   UT    <br>   GridIDNo   59    <br>   Grid_ID   UT_59    <br>   Grid_ID_txt   59    <br>   Adoptions   <Null>    <br>   Static Grid ID   UT_59]]></description>
      <styleUrl>#poly-FFD600-1200-76</styleUrl>
      <Polygon>
        <outerBoundaryIs>
          <LinearRing>
            <tessellate>1</tessellate>
            <coordinates>
              -109.695006,38.515824,0
              -110.30736,38.52049,0
              -110.31332,38.039618,0
              -109.700779,38.034999,0
              -109.695006,38.515824,0
            </coordinates>
          </LinearRing>
        </outerBoundaryIs>
      </Polygon>
    </Placemark>
    <Placemark>
      <name>UT_60</name>
      <description><![CDATA[UT    <br>       <br>   OID   9    <br>   State   UT    <br>   GridIDNo   60    <br>   Grid_ID   UT_60    <br>   Grid_ID_txt   60    <br>   Adoptions   <Null>    <br>   Static Grid ID   UT_60]]></description>
      <styleUrl>#poly-FFD600-1200-76</styleUrl>
      <Polygon>
        <outerBoundaryIs>
          <LinearRing>
            <tessellate>1</tessellate>
            <coordinates>
              -109.082751,38.511305,0
              -109.695006,38.515824,0
              -109.700779,38.034999,0
              -109.088337,38.030528,0
              -109.082751,38.511305,0
            </coordinates>
          </LinearRing>
        </outerBoundaryIs>
      </Polygon>
    </Placemark>
    <Placemark>
      <name>UT_18</name>
      <description><![CDATA[UT    <br>       <br>   OID   10    <br>   State   UT    <br>   GridIDNo   18    <br>   Grid_ID   UT_18    <br>   Grid_ID_txt   18    <br>   Adoptions   <Null>    <br>   Static Grid ID   UT_18]]></description>
      <styleUrl>#poly-FFD600-1200-76</styleUrl>
      <Polygon>
        <outerBoundaryIs>
          <LinearRing>
            <tessellate>1</tessellate>
            <coordinates>
              -111.499158,40.884854,0
              -112.110877,40.890188,0
              -112.117922,40.425954,0
              -111.506011,40.420664,0
              -111.499158,40.884854,0
            </coordinates>
          </LinearRing>
        </outerBoundaryIs>
      </Polygon>
    </Placemark>
    <Placemark>
      <name>UT_74</name>
      <description><![CDATA[UT    <br>       <br>   OID   11    <br>   State   UT    <br>   GridIDNo   74    <br>   Grid_ID   UT_74    <br>   Grid_ID_txt   74    <br>   Adoptions   <Null>    <br>   Static Grid ID   UT_74]]></description>
      <styleUrl>#poly-FFD600-1200-76</styleUrl>
      <Polygon>
        <outerBoundaryIs>
          <LinearRing>
            <tessellate>1</tessellate>
            <coordinates>
              -110.324939,37.067909,0
              -110.319179,37.55542,0
              -110.932006,37.560138,0
              -110.937949,37.072577,0
              -110.93878,37.002989,0
              -110.739459,37.003242,0
              -110.563443,37.00423,0
              -110.483486,37.004679,0
              -110.451631,36.992497,0
              -110.32581,36.992585,0
              -110.324939,37.067909,0
            </coordinates>
          </LinearRing>
        </outerBoundaryIs>
      </Polygon>
    </Placemark>
    <Placemark>
      <name>UT_6</name>
      <description><![CDATA[UT    <br>       <br>   OID   12    <br>   State   UT    <br>   GridIDNo   6    <br>   Grid_ID   UT_6    <br>   Grid_ID_txt   6    <br>   Adoptions   <Null>    <br>   Static Grid ID   UT_6]]></description>
      <styleUrl>#poly-FFD600-1200-76</styleUrl>
      <Polygon>
        <outerBoundaryIs>
          <LinearRing>
            <tessellate>1</tessellate>
            <coordinates>
              -111.48513,41.803098,0
              -112.096464,41.808518,0
              -112.103725,41.351045,0
              -111.492197,41.345667,0
              -111.48513,41.803098,0
            </coordinates>
          </LinearRing>
        </outerBoundaryIs>
      </Polygon>
    </Placemark>
    <Placemark>
      <name>UT_62</name>
      <description><![CDATA[UT    <br>       <br>   OID   13    <br>   State   UT    <br>   GridIDNo   62    <br>   Grid_ID   UT_62    <br>   Grid_ID_txt   62    <br>   Adoptions   <Null>    <br>   Static Grid ID   UT_62]]></description>
      <styleUrl>#poly-FFD600-1200-76</styleUrl>
      <Polygon>
        <outerBoundaryIs>
          <LinearRing>
            <tessellate>1</tessellate>
            <coordinates>
              -112.764504,38.05956,0
              -113.377561,38.06491,0
              -113.384338,37.58047,0
              -112.771099,37.575169,0
              -112.764504,38.05956,0
            </coordinates>
          </LinearRing>
        </outerBoundaryIs>
      </Polygon>
    </Placemark>
    <Placemark>
      <name>UT_44</name>
      <description><![CDATA[UT    <br>       <br>   OID   14    <br>   State   UT    <br>   GridIDNo   44    <br>   Grid_ID   UT_44    <br>   Grid_ID_txt   44    <br>   Adoptions   <Null>    <br>   Static Grid ID   UT_44]]></description>
      <styleUrl>#poly-FFD600-1200-76</styleUrl>
      <Polygon>
        <outerBoundaryIs>
          <LinearRing>
            <tessellate>1</tessellate>
            <coordinates>
              -109.071284,39.462843,0
              -109.68316,39.467456,0
              -109.689133,38.993313,0
              -109.077067,38.988746,0
              -109.071284,39.462843,0
            </coordinates>
          </LinearRing>
        </outerBoundaryIs>
      </Polygon>
    </Placemark>
    <Placemark>
      <name>UT_34</name>
      <description><![CDATA[UT    <br>       <br>   OID   15    <br>   State   UT    <br>   GridIDNo   34    <br>   Grid_ID   UT_34    <br>   Grid_ID_txt   34    <br>   Adoptions   <Null>    <br>   Static Grid ID   UT_34]]></description>
      <styleUrl>#poly-FFD600-1200-76</styleUrl>
      <Polygon>
        <outerBoundaryIs>
          <LinearRing>
            <tessellate>1</tessellate>
            <coordinates>
              -110.288874,39.94305,0
              -110.900765,39.948003,0
              -110.907218,39.477123,0
              -110.295138,39.472216,0
              -110.288874,39.94305,0
            </coordinates>
          </LinearRing>
        </outerBoundaryIs>
      </Polygon>
    </Placemark>
    <Placemark>
      <name>UT_68</name>
      <description><![CDATA[UT    <br>       <br>   OID   16    <br>   State   UT    <br>   GridIDNo   68    <br>   Grid_ID   UT_68    <br>   Grid_ID_txt   68    <br>   Adoptions   <Null>    <br>   Static Grid ID   UT_68]]></description>
      <styleUrl>#poly-FFD600-1200-76</styleUrl>
      <Polygon>
        <outerBoundaryIs>
          <LinearRing>
            <tessellate>1</tessellate>
            <coordinates>
              -109.088337,38.030528,0
              -109.700779,38.034999,0
              -109.706452,37.55085,0
              -109.093825,37.546428,0
              -109.088337,38.030528,0
            </coordinates>
          </LinearRing>
        </outerBoundaryIs>
      </Polygon>
    </Placemark>
    <Placemark>
      <name>UT_17</name>
      <description><![CDATA[UT    <br>       <br>   OID   17    <br>   State   UT    <br>   GridIDNo   17    <br>   Grid_ID   UT_17    <br>   Grid_ID_txt   17    <br>   Adoptions   <Null>    <br>   Static Grid ID   UT_17]]></description>
      <styleUrl>#poly-FFD600-1200-76</styleUrl>
      <Polygon>
        <outerBoundaryIs>
          <LinearRing>
            <tessellate>1</tessellate>
            <coordinates>
              -112.110877,40.890188,0
              -112.722705,40.895668,0
              -112.72994,40.431389,0
              -112.117922,40.425954,0
              -112.110877,40.890188,0
            </coordinates>
          </LinearRing>
        </outerBoundaryIs>
      </Polygon>
    </Placemark>
    <Placemark>
      <name>UT_66</name>
      <description><![CDATA[UT    <br>       <br>   OID   18    <br>   State   UT    <br>   GridIDNo   66    <br>   Grid_ID   UT_66    <br>   Grid_ID_txt   66    <br>   Adoptions   <Null>    <br>   Static Grid ID   UT_66]]></description>
      <styleUrl>#poly-FFD600-1200-76</styleUrl>
      <Polygon>
        <outerBoundaryIs>
          <LinearRing>
            <tessellate>1</tessellate>
            <coordinates>
              -110.31332,38.039618,0
              -110.925962,38.044384,0
              -110.932006,37.560138,0
              -110.319179,37.55542,0
              -110.31332,38.039618,0
            </coordinates>
          </LinearRing>
        </outerBoundaryIs>
      </Polygon>
    </Placemark>
    <Placemark>
      <name>UT_43</name>
      <description><![CDATA[UT    <br>       <br>   OID   19    <br>   State   UT    <br>   GridIDNo   43    <br>   Grid_ID   UT_43    <br>   Grid_ID_txt   43    <br>   Adoptions   <Null>    <br>   Static Grid ID   UT_43]]></description>
      <styleUrl>#poly-FFD600-1200-76</styleUrl>
      <Polygon>
        <outerBoundaryIs>
          <LinearRing>
            <tessellate>1</tessellate>
            <coordinates>
              -109.68316,39.467456,0
              -110.295138,39.472216,0
              -110.3013,38.998026,0
              -109.689133,38.993313,0
              -109.68316,39.467456,0
            </coordinates>
          </LinearRing>
        </outerBoundaryIs>
      </Polygon>
    </Placemark>
    <Placemark>
      <name>UT_25</name>
      <description><![CDATA[UT    <br>       <br>   OID   20    <br>   State   UT    <br>   GridIDNo   25    <br>   Grid_ID   UT_25    <br>   Grid_ID_txt   25    <br>   Adoptions   <Null>    <br>   Static Grid ID   UT_25]]></description>
      <styleUrl>#poly-FFD600-1200-76</styleUrl>
      <Polygon>
        <outerBoundaryIs>
          <LinearRing>
            <tessellate>1</tessellate>
            <coordinates>
              -110.894207,40.41552,0
              -111.506011,40.420664,0
              -111.512759,39.953103,0
              -110.900765,39.948003,0
              -110.894207,40.41552,0
            </coordinates>
          </LinearRing>
        </outerBoundaryIs>
      </Polygon>
    </Placemark>
    <Placemark>
      <name>UT_54</name>
      <description><![CDATA[UT    <br>       <br>   OID   21    <br>   State   UT    <br>   GridIDNo   54    <br>   Grid_ID   UT_54    <br>   Grid_ID_txt   54    <br>   Adoptions   <Null>    <br>   Static Grid ID   UT_54]]></description>
      <styleUrl>#poly-FFD600-1200-76</styleUrl>
      <Polygon>
        <outerBoundaryIs>
          <LinearRing>
            <tessellate>1</tessellate>
            <coordinates>
              -112.764504,38.05956,0
              -112.757804,38.540623,0
              -113.370677,38.54602,0
              -113.377561,38.06491,0
              -112.764504,38.05956,0
            </coordinates>
          </LinearRing>
        </outerBoundaryIs>
      </Polygon>
    </Placemark>
    <Placemark>
      <name>UT_63</name>
      <description><![CDATA[UT    <br>       <br>   OID   22    <br>   State   UT    <br>   GridIDNo   63    <br>   Grid_ID   UT_63    <br>   Grid_ID_txt   63    <br>   Adoptions   <Null>    <br>   Static Grid ID   UT_63]]></description>
      <styleUrl>#poly-FFD600-1200-76</styleUrl>
      <Polygon>
        <outerBoundaryIs>
          <LinearRing>
            <tessellate>1</tessellate>
            <coordinates>
              -112.764504,38.05956,0
              -112.771099,37.575169,0
              -112.157965,37.570012,0
              -112.151553,38.054356,0
              -112.764504,38.05956,0
            </coordinates>
          </LinearRing>
        </outerBoundaryIs>
      </Polygon>
    </Placemark>
    <Placemark>
      <name>UT_57</name>
      <description><![CDATA[UT    <br>       <br>   OID   23    <br>   State   UT    <br>   GridIDNo   57    <br>   Grid_ID   UT_57    <br>   Grid_ID_txt   57    <br>   Adoptions   <Null>    <br>   Static Grid ID   UT_57]]></description>
      <styleUrl>#poly-FFD600-1200-76</styleUrl>
      <Polygon>
        <outerBoundaryIs>
          <LinearRing>
            <tessellate>1</tessellate>
            <coordinates>
              -110.919816,38.525304,0
              -111.532375,38.530264,0
              -111.538706,38.049297,0
              -110.925962,38.044384,0
              -110.919816,38.525304,0
            </coordinates>
          </LinearRing>
        </outerBoundaryIs>
      </Polygon>
    </Placemark>
    <Placemark>
      <name>UT_2</name>
      <description><![CDATA[UT    <br>       <br>   OID   24    <br>   State   UT    <br>   GridIDNo   2    <br>   Grid_ID   UT_2    <br>   Grid_ID_txt   2    <br>   Adoptions   <Null>    <br>   Static Grid ID   UT_2]]></description>
      <styleUrl>#poly-FFD600-1200-76</styleUrl>
      <Polygon>
        <outerBoundaryIs>
          <LinearRing>
            <tessellate>1</tessellate>
            <coordinates>
              -111.461758,42.000586,0
              -111.482012,42.000766,0
              -111.493978,42.000873,0
              -111.910916,42.002337,0
              -112.093314,42.002977,0
              -112.099914,42.003,0
              -112.146514,41.999755,0
              -112.360074,42.000285,0
              -112.704798,42.00114,0
              -112.707907,41.814084,0
              -112.096464,41.808518,0
              -111.48513,41.803098,0
              -111.048985,41.799334,0
              -111.048137,41.996901,0
              -111.461758,42.000586,0
            </coordinates>
          </LinearRing>
        </outerBoundaryIs>
      </Polygon>
    </Placemark>
    <Placemark>
      <name>UT_70</name>
      <description><![CDATA[UT    <br>       <br>   OID   25    <br>   State   UT    <br>   GridIDNo   70    <br>   Grid_ID   UT_70    <br>   Grid_ID_txt   70    <br>   Adoptions   <Null>    <br>   Static Grid ID   UT_70]]></description>
      <styleUrl>#poly-FFD600-1200-76</styleUrl>
      <Polygon>
        <outerBoundaryIs>
          <LinearRing>
            <tessellate>1</tessellate>
            <coordinates>
              -112.809231,36.997423,0
              -112.778762,36.997574,0
              -112.77759,37.087461,0
              -112.771099,37.575169,0
              -113.384338,37.58047,0
              -113.391011,37.092713,0
              -113.392292,36.997112,0
              -113.258389,36.997076,0
              -112.899377,36.996979,0
              -112.809231,36.997423,0
            </coordinates>
          </LinearRing>
        </outerBoundaryIs>
      </Polygon>
    </Placemark>
    <Placemark>
      <name>UT_46</name>
      <description><![CDATA[UT    <br>       <br>   OID   26    <br>   State   UT    <br>   GridIDNo   46    <br>   Grid_ID   UT_46    <br>   Grid_ID_txt   46    <br>   Adoptions   <Null>    <br>   Static Grid ID   UT_46]]></description>
      <styleUrl>#poly-FFD600-1200-76</styleUrl>
      <Polygon>
        <outerBoundaryIs>
          <LinearRing>
            <tessellate>1</tessellate>
            <coordinates>
              -112.750998,39.018347,0
              -113.363686,39.023791,0
              -113.370677,38.54602,0
              -112.757804,38.540623,0
              -112.750998,39.018347,0
            </coordinates>
          </LinearRing>
        </outerBoundaryIs>
      </Polygon>
    </Placemark>
    <Placemark>
      <name>UT_31</name>
      <description><![CDATA[UT    <br>       <br>   OID   27    <br>   State   UT    <br>   GridIDNo   31    <br>   Grid_ID   UT_31    <br>   Grid_ID_txt   31    <br>   Adoptions   <Null>    <br>   Static Grid ID   UT_31]]></description>
      <styleUrl>#poly-FFD600-1200-76</styleUrl>
      <Polygon>
        <outerBoundaryIs>
          <LinearRing>
            <tessellate>1</tessellate>
            <coordinates>
              -112.12486,39.958348,0
              -112.737067,39.963738,0
              -112.744086,39.492722,0
              -112.131691,39.487376,0
              -112.12486,39.958348,0
            </coordinates>
          </LinearRing>
        </outerBoundaryIs>
      </Polygon>
    </Placemark>
    <Placemark>
      <name>UT_35</name>
      <description><![CDATA[UT    <br>       <br>   OID   28    <br>   State   UT    <br>   GridIDNo   35    <br>   Grid_ID   UT_35    <br>   Grid_ID_txt   35    <br>   Adoptions   <Null>    <br>   Static Grid ID   UT_35]]></description>
      <styleUrl>#poly-FFD600-1200-76</styleUrl>
      <Polygon>
        <outerBoundaryIs>
          <LinearRing>
            <tessellate>1</tessellate>
            <coordinates>
              -109.677087,39.938245,0
              -110.288874,39.94305,0
              -110.295138,39.472216,0
              -109.68316,39.467456,0
              -109.677087,39.938245,0
            </coordinates>
          </LinearRing>
        </outerBoundaryIs>
      </Polygon>
    </Placemark>
    <Placemark>
      <name>UT_72</name>
      <description><![CDATA[UT    <br>       <br>   OID   29    <br>   State   UT    <br>   GridIDNo   72    <br>   Grid_ID   UT_72    <br>   Grid_ID_txt   72    <br>   Adoptions   <Null>    <br>   Static Grid ID   UT_72]]></description>
      <styleUrl>#poly-FFD600-1200-76</styleUrl>
      <Polygon>
        <outerBoundaryIs>
          <LinearRing>
            <tessellate>1</tessellate>
            <coordinates>
              -111.910916,36.998541,0
              -111.552,37.001074,0
              -111.551061,37.077392,0
              -111.544934,37.565002,0
              -112.157965,37.570012,0
              -112.164274,37.082353,0
              -112.165359,36.996745,0
              -111.910916,36.998541,0
            </coordinates>
          </LinearRing>
        </outerBoundaryIs>
      </Polygon>
    </Placemark>
    <Placemark>
      <name>UT_52</name>
      <description><![CDATA[UT    <br>       <br>   OID   30    <br>   State   UT    <br>   GridIDNo   52    <br>   Grid_ID   UT_52    <br>   Grid_ID_txt   52    <br>   Adoptions   <Null>    <br>   Static Grid ID   UT_52]]></description>
      <styleUrl>#poly-FFD600-1200-76</styleUrl>
      <Polygon>
        <outerBoundaryIs>
          <LinearRing>
            <tessellate>1</tessellate>
            <coordinates>
              -109.077067,38.988746,0
              -109.689133,38.993313,0
              -109.695006,38.515824,0
              -109.082751,38.511305,0
              -109.077067,38.988746,0
            </coordinates>
          </LinearRing>
        </outerBoundaryIs>
      </Polygon>
    </Placemark>
    <Placemark>
      <name>CLOSED</name>
      <description><![CDATA[UT    <br>       <br>   OID   31    <br>   State   UT    <br>   GridIDNo   26    <br>   Grid_ID   CLOSED    <br>   Grid_ID_txt   26    <br>   Adoptions   <Null>    <br>   Static Grid ID   UT_26]]></description>
      <styleUrl>#poly-FFD600-1200-76</styleUrl>
      <Polygon>
        <outerBoundaryIs>
          <LinearRing>
            <tessellate>1</tessellate>
            <coordinates>
              -110.282508,40.410522,0
              -110.894207,40.41552,0
              -110.900765,39.948003,0
              -110.288874,39.94305,0
              -110.282508,40.410522,0
            </coordinates>
          </LinearRing>
        </outerBoundaryIs>
      </Polygon>
    </Placemark>
    <Placemark>
      <name>UT_55</name>
      <description><![CDATA[UT    <br>       <br>   OID   32    <br>   State   UT    <br>   GridIDNo   55    <br>   Grid_ID   UT_55    <br>   Grid_ID_txt   55    <br>   Adoptions   <Null>    <br>   Static Grid ID   UT_55]]></description>
      <styleUrl>#poly-FFD600-1200-76</styleUrl>
      <Polygon>
        <outerBoundaryIs>
          <LinearRing>
            <tessellate>1</tessellate>
            <coordinates>
              -112.145037,38.535371,0
              -112.757804,38.540623,0
              -112.764504,38.05956,0
              -112.151553,38.054356,0
              -112.145037,38.535371,0
            </coordinates>
          </LinearRing>
        </outerBoundaryIs>
      </Polygon>
    </Placemark>
    <Placemark>
      <name>UT_7</name>
      <description><![CDATA[UT    <br>       <br>   OID   33    <br>   State   UT    <br>   GridIDNo   7    <br>   Grid_ID   UT_7    <br>   Grid_ID_txt   7    <br>   Adoptions   <Null>    <br>   Static Grid ID   UT_7]]></description>
      <styleUrl>#poly-FFD600-1200-76</styleUrl>
      <Polygon>
        <outerBoundaryIs>
          <LinearRing>
            <tessellate>1</tessellate>
            <coordinates>
              -111.049033,41.799335,0
              -111.48513,41.803098,0
              -111.492197,41.345667,0
              -111.050742,41.34189,0
              -111.049033,41.799335,0
            </coordinates>
          </LinearRing>
        </outerBoundaryIs>
      </Polygon>
    </Placemark>
    <Placemark>
      <name>UT_23</name>
      <description><![CDATA[UT    <br>       <br>   OID   34    <br>   State   UT    <br>   GridIDNo   23    <br>   Grid_ID   UT_23    <br>   Grid_ID_txt   23    <br>   Adoptions   <Null>    <br>   Static Grid ID   UT_23]]></description>
      <styleUrl>#poly-FFD600-1200-76</styleUrl>
      <Polygon>
        <outerBoundaryIs>
          <LinearRing>
            <tessellate>1</tessellate>
            <coordinates>
              -112.117922,40.425954,0
              -112.72994,40.431389,0
              -112.737067,39.963738,0
              -112.12486,39.958348,0
              -112.117922,40.425954,0
            </coordinates>
          </LinearRing>
        </outerBoundaryIs>
      </Polygon>
    </Placemark>
    <Placemark>
      <name>UT_9</name>
      <description><![CDATA[UT    <br>       <br>   OID   35    <br>   State   UT    <br>   GridIDNo   9    <br>   Grid_ID   UT_9    <br>   Grid_ID_txt   9    <br>   Adoptions   <Null>    <br>   Static Grid ID   UT_9]]></description>
      <styleUrl>#poly-FFD600-1200-76</styleUrl>
      <Polygon>
        <outerBoundaryIs>
          <LinearRing>
            <tessellate>1</tessellate>
            <coordinates>
              -112.715361,41.356568,0
              -113.327107,41.362235,0
              -113.334642,40.901292,0
              -112.722705,40.895668,0
              -112.715361,41.356568,0
            </coordinates>
          </LinearRing>
        </outerBoundaryIs>
      </Polygon>
    </Placemark>
    <Placemark>
      <name>UT_41</name>
      <description><![CDATA[UT    <br>       <br>   OID   36    <br>   State   UT    <br>   GridIDNo   41    <br>   Grid_ID   UT_41    <br>   Grid_ID_txt   41    <br>   Adoptions   <Null>    <br>   Static Grid ID   UT_41]]></description>
      <styleUrl>#poly-FFD600-1200-76</styleUrl>
      <Polygon>
        <outerBoundaryIs>
          <LinearRing>
            <tessellate>1</tessellate>
            <coordinates>
              -110.907218,39.477123,0
              -111.519402,39.482177,0
              -111.52594,39.007894,0
              -110.913569,39.002887,0
              -110.907218,39.477123,0
            </coordinates>
          </LinearRing>
        </outerBoundaryIs>
      </Polygon>
    </Placemark>
    <Placemark>
      <name>UT_56</name>
      <description><![CDATA[UT    <br>       <br>   OID   37    <br>   State   UT    <br>   GridIDNo   56    <br>   Grid_ID   UT_56    <br>   Grid_ID_txt   56    <br>   Adoptions   <Null>    <br>   Static Grid ID   UT_56]]></description>
      <styleUrl>#poly-FFD600-1200-76</styleUrl>
      <Polygon>
        <outerBoundaryIs>
          <LinearRing>
            <tessellate>1</tessellate>
            <coordinates>
              -111.532375,38.530264,0
              -112.145037,38.535371,0
              -112.151553,38.054356,0
              -111.538706,38.049297,0
              -111.532375,38.530264,0
            </coordinates>
          </LinearRing>
        </outerBoundaryIs>
      </Polygon>
    </Placemark>
    <Placemark>
      <name>UT_10</name>
      <description><![CDATA[UT    <br>       <br>   OID   38    <br>   State   UT    <br>   GridIDNo   10    <br>   Grid_ID   UT_10    <br>   Grid_ID_txt   10    <br>   Adoptions   <Null>    <br>   Static Grid ID   UT_10]]></description>
      <styleUrl>#poly-FFD600-1200-76</styleUrl>
      <Polygon>
        <outerBoundaryIs>
          <LinearRing>
            <tessellate>1</tessellate>
            <coordinates>
              -112.722705,40.895668,0
              -112.110877,40.890188,0
              -112.103725,41.351045,0
              -112.715361,41.356568,0
              -112.722705,40.895668,0
            </coordinates>
          </LinearRing>
        </outerBoundaryIs>
      </Polygon>
    </Placemark>
    <Placemark>
      <name>UT_36</name>
      <description><![CDATA[UT    <br>       <br>   OID   39    <br>   State   UT    <br>   GridIDNo   36    <br>   Grid_ID   UT_36    <br>   Grid_ID_txt   36    <br>   Adoptions   <Null>    <br>   Static Grid ID   UT_36]]></description>
      <styleUrl>#poly-FFD600-1200-76</styleUrl>
      <Polygon>
        <outerBoundaryIs>
          <LinearRing>
            <tessellate>1</tessellate>
            <coordinates>
              -109.065402,39.933586,0
              -109.677087,39.938245,0
              -109.68316,39.467456,0
              -109.071284,39.462843,0
              -109.065402,39.933586,0
            </coordinates>
          </LinearRing>
        </outerBoundaryIs>
      </Polygon>
    </Placemark>
    <Placemark>
      <name>UT_30</name>
      <description><![CDATA[UT    <br>       <br>   OID   40    <br>   State   UT    <br>   GridIDNo   30    <br>   Grid_ID   UT_30    <br>   Grid_ID_txt   30    <br>   Adoptions   <Null>    <br>   Static Grid ID   UT_30]]></description>
      <styleUrl>#poly-FFD600-1200-76</styleUrl>
      <Polygon>
        <outerBoundaryIs>
          <LinearRing>
            <tessellate>1</tessellate>
            <coordinates>
              -112.737067,39.963738,0
              -113.349382,39.969274,0
              -113.356588,39.498212,0
              -112.744086,39.492722,0
              -112.737067,39.963738,0
            </coordinates>
          </LinearRing>
        </outerBoundaryIs>
      </Polygon>
    </Placemark>
    <Placemark>
      <name>UT_42</name>
      <description><![CDATA[UT    <br>       <br>   OID   41    <br>   State   UT    <br>   GridIDNo   42    <br>   Grid_ID   UT_42    <br>   Grid_ID_txt   42    <br>   Adoptions   <Null>    <br>   Static Grid ID   UT_42]]></description>
      <styleUrl>#poly-FFD600-1200-76</styleUrl>
      <Polygon>
        <outerBoundaryIs>
          <LinearRing>
            <tessellate>1</tessellate>
            <coordinates>
              -110.3013,38.998026,0
              -110.295138,39.472216,0
              -110.907218,39.477123,0
              -110.913569,39.002887,0
              -110.3013,38.998026,0
            </coordinates>
          </LinearRing>
        </outerBoundaryIs>
      </Polygon>
    </Placemark>
    <Placemark>
      <name>UT_50</name>
      <description><![CDATA[UT    <br>       <br>   OID   42    <br>   State   UT    <br>   GridIDNo   50    <br>   Grid_ID   UT_50    <br>   Grid_ID_txt   50    <br>   Adoptions   <Null>    <br>   Static Grid ID   UT_50]]></description>
      <styleUrl>#poly-FFD600-1200-76</styleUrl>
      <Polygon>
        <outerBoundaryIs>
          <LinearRing>
            <tessellate>1</tessellate>
            <coordinates>
              -110.3013,38.998026,0
              -110.913569,39.002887,0
              -110.919816,38.525304,0
              -110.30736,38.52049,0
              -110.3013,38.998026,0
            </coordinates>
          </LinearRing>
        </outerBoundaryIs>
      </Polygon>
    </Placemark>
    <Placemark>
      <name>UT_48</name>
      <description><![CDATA[UT    <br>       <br>   OID   43    <br>   State   UT    <br>   GridIDNo   48    <br>   Grid_ID   UT_48    <br>   Grid_ID_txt   48    <br>   Adoptions   <Null>    <br>   Static Grid ID   UT_48]]></description>
      <styleUrl>#poly-FFD600-1200-76</styleUrl>
      <Polygon>
        <outerBoundaryIs>
          <LinearRing>
            <tessellate>1</tessellate>
            <coordinates>
              -111.52594,39.007894,0
              -112.138416,39.013048,0
              -112.145037,38.535371,0
              -111.532375,38.530264,0
              -111.52594,39.007894,0
            </coordinates>
          </LinearRing>
        </outerBoundaryIs>
      </Polygon>
    </Placemark>
    <Placemark>
      <name>UT_33</name>
      <description><![CDATA[UT    <br>       <br>   OID   44    <br>   State   UT    <br>   GridIDNo   33    <br>   Grid_ID   UT_33    <br>   Grid_ID_txt   33    <br>   Adoptions   <Null>    <br>   Static Grid ID   UT_33]]></description>
      <styleUrl>#poly-FFD600-1200-76</styleUrl>
      <Polygon>
        <outerBoundaryIs>
          <LinearRing>
            <tessellate>1</tessellate>
            <coordinates>
              -110.907218,39.477123,0
              -110.900765,39.948003,0
              -111.512759,39.953103,0
              -111.519402,39.482177,0
              -110.907218,39.477123,0
            </coordinates>
          </LinearRing>
        </outerBoundaryIs>
      </Polygon>
    </Placemark>
    <Placemark>
      <name>UT_64</name>
      <description><![CDATA[UT    <br>       <br>   OID   45    <br>   State   UT    <br>   GridIDNo   64    <br>   Grid_ID   UT_64    <br>   Grid_ID_txt   64    <br>   Adoptions   <Null>    <br>   Static Grid ID   UT_64]]></description>
      <styleUrl>#poly-FFD600-1200-76</styleUrl>
      <Polygon>
        <outerBoundaryIs>
          <LinearRing>
            <tessellate>1</tessellate>
            <coordinates>
              -111.538706,38.049297,0
              -112.151553,38.054356,0
              -112.157965,37.570012,0
              -111.544934,37.565002,0
              -111.538706,38.049297,0
            </coordinates>
          </LinearRing>
        </outerBoundaryIs>
      </Polygon>
    </Placemark>
    <Placemark>
      <name>UT_71</name>
      <description><![CDATA[UT    <br>       <br>   OID   46    <br>   State   UT    <br>   GridIDNo   71    <br>   Grid_ID   UT_71    <br>   Grid_ID_txt   71    <br>   Adoptions   <Null>    <br>   Static Grid ID   UT_71]]></description>
      <styleUrl>#poly-FFD600-1200-76</styleUrl>
      <Polygon>
        <outerBoundaryIs>
          <LinearRing>
            <tessellate>1</tessellate>
            <coordinates>
              -112.164274,37.082353,0
              -112.157965,37.570012,0
              -112.771099,37.575169,0
              -112.77759,37.087461,0
              -112.778762,36.997574,0
              -112.541914,36.998742,0
              -112.360074,36.997253,0
              -112.23665,36.996242,0
              -112.165359,36.996745,0
              -112.164274,37.082353,0
            </coordinates>
          </LinearRing>
        </outerBoundaryIs>
      </Polygon>
    </Placemark>
    <Placemark>
      <name>UT_28</name>
      <description><![CDATA[UT    <br>       <br>   OID   47    <br>   State   UT    <br>   GridIDNo   28    <br>   Grid_ID   UT_28    <br>   Grid_ID_txt   28    <br>   Adoptions   <Null>    <br>   Static Grid ID   UT_28]]></description>
      <styleUrl>#poly-FFD600-1200-76</styleUrl>
      <Polygon>
        <outerBoundaryIs>
          <LinearRing>
            <tessellate>1</tessellate>
            <coordinates>
              -109.059419,40.400968,0
              -109.670912,40.405671,0
              -109.677087,39.938245,0
              -109.065402,39.933586,0
              -109.059419,40.400968,0
            </coordinates>
          </LinearRing>
        </outerBoundaryIs>
      </Polygon>
    </Placemark>
    <Placemark>
      <name>UT_47</name>
      <description><![CDATA[UT    <br>       <br>   OID   48    <br>   State   UT    <br>   GridIDNo   47    <br>   Grid_ID   UT_47    <br>   Grid_ID_txt   47    <br>   Adoptions   <Null>    <br>   Static Grid ID   UT_47]]></description>
      <styleUrl>#poly-FFD600-1200-76</styleUrl>
      <Polygon>
        <outerBoundaryIs>
          <LinearRing>
            <tessellate>1</tessellate>
            <coordinates>
              -112.138416,39.013048,0
              -112.750998,39.018347,0
              -112.757804,38.540623,0
              -112.145037,38.535371,0
              -112.138416,39.013048,0
            </coordinates>
          </LinearRing>
        </outerBoundaryIs>
      </Polygon>
    </Placemark>
    <Placemark>
      <name>UT_73</name>
      <description><![CDATA[UT    <br>       <br>   OID   49    <br>   State   UT    <br>   GridIDNo   73    <br>   Grid_ID   UT_73    <br>   Grid_ID_txt   73    <br>   Adoptions   <Null>    <br>   Static Grid ID   UT_73]]></description>
      <styleUrl>#poly-FFD600-1200-76</styleUrl>
      <Polygon>
        <outerBoundaryIs>
          <LinearRing>
            <tessellate>1</tessellate>
            <coordinates>
              -111.461758,37.001711,0
              -111.355559,37.00246,0
              -111.012601,37.002896,0
              -110.93878,37.002989,0
              -110.937949,37.072577,0
              -110.932006,37.560138,0
              -111.544934,37.565002,0
              -111.551061,37.077392,0
              -111.552,37.001074,0
              -111.461758,37.001711,0
            </coordinates>
          </LinearRing>
        </outerBoundaryIs>
      </Polygon>
    </Placemark>
    <Placemark>
      <name>UT_20</name>
      <description><![CDATA[UT    <br>       <br>   OID   50    <br>   State   UT    <br>   GridIDNo   20    <br>   Grid_ID   UT_20    <br>   Grid_ID_txt   20    <br>   Adoptions   <Null>    <br>   Static Grid ID   UT_20]]></description>
      <styleUrl>#poly-FFD600-1200-76</styleUrl>
      <Polygon>
        <outerBoundaryIs>
          <LinearRing>
            <tessellate>1</tessellate>
            <coordinates>
              -110.276038,40.874624,0
              -110.887545,40.879666,0
              -110.894207,40.41552,0
              -110.282508,40.410522,0
              -110.276038,40.874624,0
            </coordinates>
          </LinearRing>
        </outerBoundaryIs>
      </Polygon>
    </Placemark>
    <Placemark>
      <name>UT_65</name>
      <description><![CDATA[UT    <br>       <br>   OID   51    <br>   State   UT    <br>   GridIDNo   65    <br>   Grid_ID   UT_65    <br>   Grid_ID_txt   65    <br>   Adoptions   <Null>    <br>   Static Grid ID   UT_65]]></description>
      <styleUrl>#poly-FFD600-1200-76</styleUrl>
      <Polygon>
        <outerBoundaryIs>
          <LinearRing>
            <tessellate>1</tessellate>
            <coordinates>
              -110.925962,38.044384,0
              -111.538706,38.049297,0
              -111.544934,37.565002,0
              -110.932006,37.560138,0
              -110.925962,38.044384,0
            </coordinates>
          </LinearRing>
        </outerBoundaryIs>
      </Polygon>
    </Placemark>
    <Placemark>
      <name>UT_75</name>
      <description><![CDATA[UT    <br>       <br>   OID   52    <br>   State   UT    <br>   GridIDNo   75    <br>   Grid_ID   UT_75    <br>   Grid_ID_txt   75    <br>   Adoptions   <Null>    <br>   Static Grid ID   UT_75]]></description>
      <styleUrl>#poly-FFD600-1200-76</styleUrl>
      <Polygon>
        <outerBoundaryIs>
          <LinearRing>
            <tessellate>1</tessellate>
            <coordinates>
              -110.114286,36.992733,0
              -109.996468,36.992815,0
              -109.712802,36.994183,0
              -109.712028,37.063388,0
              -109.706452,37.55085,0
              -110.319179,37.55542,0
              -110.324939,37.067909,0
              -110.32581,36.992585,0
              -110.114286,36.992733,0
            </coordinates>
          </LinearRing>
        </outerBoundaryIs>
      </Polygon>
    </Placemark>
    <Placemark>
      <name>UT_4</name>
      <description><![CDATA[UT    <br>       <br>   OID   53    <br>   State   UT    <br>   GridIDNo   4    <br>   Grid_ID   UT_4    <br>   Grid_ID_txt   4    <br>   Adoptions   <Null>    <br>   Static Grid ID   UT_4]]></description>
      <styleUrl>#poly-FFD600-1200-76</styleUrl>
      <Polygon>
        <outerBoundaryIs>
          <LinearRing>
            <tessellate>1</tessellate>
            <coordinates>
              -112.707907,41.814084,0
              -113.319461,41.819794,0
              -113.327107,41.362235,0
              -112.715361,41.356568,0
              -112.707907,41.814084,0
            </coordinates>
          </LinearRing>
        </outerBoundaryIs>
      </Polygon>
    </Placemark>
    <Placemark>
      <name>UT_16</name>
      <description><![CDATA[UT    <br>       <br>   OID   54    <br>   State   UT    <br>   GridIDNo   16    <br>   Grid_ID   UT_16    <br>   Grid_ID_txt   16    <br>   Adoptions   <Null>    <br>   Static Grid ID   UT_16]]></description>
      <styleUrl>#poly-FFD600-1200-76</styleUrl>
      <Polygon>
        <outerBoundaryIs>
          <LinearRing>
            <tessellate>1</tessellate>
            <coordinates>
              -112.722705,40.895668,0
              -113.334642,40.901292,0
              -113.342067,40.43697,0
              -112.72994,40.431389,0
              -112.722705,40.895668,0
            </coordinates>
          </LinearRing>
        </outerBoundaryIs>
      </Polygon>
    </Placemark>
    <Placemark>
      <name>UT_58</name>
      <description><![CDATA[UT    <br>       <br>   OID   55    <br>   State   UT    <br>   GridIDNo   58    <br>   Grid_ID   UT_58    <br>   Grid_ID_txt   58    <br>   Adoptions   <Null>    <br>   Static Grid ID   UT_58]]></description>
      <styleUrl>#poly-FFD600-1200-76</styleUrl>
      <Polygon>
        <outerBoundaryIs>
          <LinearRing>
            <tessellate>1</tessellate>
            <coordinates>
              -110.30736,38.52049,0
              -110.919816,38.525304,0
              -110.925962,38.044384,0
              -110.31332,38.039618,0
              -110.30736,38.52049,0
            </coordinates>
          </LinearRing>
        </outerBoundaryIs>
      </Polygon>
    </Placemark>
    <Placemark>
      <name>UT_27</name>
      <description><![CDATA[UT    <br>       <br>   OID   56    <br>   State   UT    <br>   GridIDNo   27    <br>   Grid_ID   UT_27    <br>   Grid_ID_txt   27    <br>   Adoptions   <Null>    <br>   Static Grid ID   UT_27]]></description>
      <styleUrl>#poly-FFD600-1200-76</styleUrl>
      <Polygon>
        <outerBoundaryIs>
          <LinearRing>
            <tessellate>1</tessellate>
            <coordinates>
              -109.670912,40.405671,0
              -110.282508,40.410522,0
              -110.288874,39.94305,0
              -109.677087,39.938245,0
              -109.670912,40.405671,0
            </coordinates>
          </LinearRing>
        </outerBoundaryIs>
      </Polygon>
    </Placemark>
    <Placemark>
      <name>UT_67</name>
      <description><![CDATA[UT    <br>       <br>   OID   57    <br>   State   UT    <br>   GridIDNo   67    <br>   Grid_ID   UT_67    <br>   Grid_ID_txt   67    <br>   Adoptions   <Null>    <br>   Static Grid ID   UT_67]]></description>
      <styleUrl>#poly-FFD600-1200-76</styleUrl>
      <Polygon>
        <outerBoundaryIs>
          <LinearRing>
            <tessellate>1</tessellate>
            <coordinates>
              -109.700779,38.034999,0
              -110.31332,38.039618,0
              -110.319179,37.55542,0
              -109.706452,37.55085,0
              -109.700779,38.034999,0
            </coordinates>
          </LinearRing>
        </outerBoundaryIs>
      </Polygon>
    </Placemark>
    <Placemark>
      <name>UT_76</name>
      <description><![CDATA[UT    <br>       <br>   OID   58    <br>   State   UT    <br>   GridIDNo   76    <br>   Grid_ID   UT_76    <br>   Grid_ID_txt   76    <br>   Adoptions   <Null>    <br>   Static Grid ID   UT_76]]></description>
      <styleUrl>#poly-FFD600-1200-76</styleUrl>
      <Polygon>
        <outerBoundaryIs>
          <LinearRing>
            <tessellate>1</tessellate>
            <coordinates>
              -109.665128,36.994412,0
              -109.21597,36.996578,0
              -109.099885,36.997137,0
              -109.099215,37.059015,0
              -109.093825,37.546428,0
              -109.706452,37.55085,0
              -109.712028,37.063388,0
              -109.712802,36.994183,0
              -109.665128,36.994412,0
            </coordinates>
          </LinearRing>
        </outerBoundaryIs>
      </Polygon>
    </Placemark>
    <Placemark>
      <name>UT_19</name>
      <description><![CDATA[UT    <br>       <br>   OID   59    <br>   State   UT    <br>   GridIDNo   19    <br>   Grid_ID   UT_19    <br>   Grid_ID_txt   19    <br>   Adoptions   <Null>    <br>   Static Grid ID   UT_19]]></description>
      <styleUrl>#poly-FFD600-1200-76</styleUrl>
      <Polygon>
        <outerBoundaryIs>
          <LinearRing>
            <tessellate>1</tessellate>
            <coordinates>
              -110.887545,40.879666,0
              -111.499158,40.884854,0
              -111.506011,40.420664,0
              -110.894207,40.41552,0
              -110.887545,40.879666,0
            </coordinates>
          </LinearRing>
        </outerBoundaryIs>
      </Polygon>
    </Placemark>
    <Placemark>
      <name>UT_22</name>
      <description><![CDATA[UT    <br>       <br>   OID   60    <br>   State   UT    <br>   GridIDNo   22    <br>   Grid_ID   UT_22    <br>   Grid_ID_txt   22    <br>   Adoptions   <Null>    <br>   Static Grid ID   UT_22]]></description>
      <styleUrl>#poly-FFD600-1200-76</styleUrl>
      <Polygon>
        <outerBoundaryIs>
          <LinearRing>
            <tessellate>1</tessellate>
            <coordinates>
              -112.72994,40.431389,0
              -113.342067,40.43697,0
              -113.349382,39.969274,0
              -112.737067,39.963738,0
              -112.72994,40.431389,0
            </coordinates>
          </LinearRing>
        </outerBoundaryIs>
      </Polygon>
    </Placemark>
    <Placemark>
      <name>UT_51</name>
      <description><![CDATA[UT    <br>       <br>   OID   61    <br>   State   UT    <br>   GridIDNo   51    <br>   Grid_ID   UT_51    <br>   Grid_ID_txt   51    <br>   Adoptions   <Null>    <br>   Static Grid ID   UT_51]]></description>
      <styleUrl>#poly-FFD600-1200-76</styleUrl>
      <Polygon>
        <outerBoundaryIs>
          <LinearRing>
            <tessellate>1</tessellate>
            <coordinates>
              -109.689133,38.993313,0
              -110.3013,38.998026,0
              -110.30736,38.52049,0
              -109.695006,38.515824,0
              -109.689133,38.993313,0
            </coordinates>
          </LinearRing>
        </outerBoundaryIs>
      </Polygon>
    </Placemark>
    <Placemark>
      <name>UT_39</name>
      <description><![CDATA[UT    <br>       <br>   OID   62    <br>   State   UT    <br>   GridIDNo   39    <br>   Grid_ID   UT_39    <br>   Grid_ID_txt   39    <br>   Adoptions   <Null>    <br>   Static Grid ID   UT_39]]></description>
      <styleUrl>#poly-FFD600-1200-76</styleUrl>
      <Polygon>
        <outerBoundaryIs>
          <LinearRing>
            <tessellate>1</tessellate>
            <coordinates>
              -112.131691,39.487376,0
              -112.744086,39.492722,0
              -112.750998,39.018347,0
              -112.138416,39.013048,0
              -112.131691,39.487376,0
            </coordinates>
          </LinearRing>
        </outerBoundaryIs>
      </Polygon>
    </Placemark>
    <Placemark>
      <name>UT_14</name>
      <description><![CDATA[UT    <br>       <br>   OID   63    <br>   State   UT    <br>   GridIDNo   14    <br>   Grid_ID   UT_14    <br>   Grid_ID_txt   14    <br>   Adoptions   <Null>    <br>   Static Grid ID   UT_14]]></description>
      <styleUrl>#poly-FFD600-1200-76</styleUrl>
      <Polygon>
        <outerBoundaryIs>
          <LinearRing>
            <tessellate>1</tessellate>
            <coordinates>
              -109.664635,40.869729,0
              -109.662842,40.999594,0
              -110.274265,40.99921,0
              -110.276038,40.874624,0
              -110.282508,40.410522,0
              -109.670912,40.405671,0
              -109.664635,40.869729,0
            </coordinates>
          </LinearRing>
        </outerBoundaryIs>
      </Polygon>
    </Placemark>
    <Placemark>
      <name>UT_12</name>
      <description><![CDATA[UT    <br>       <br>   OID   64    <br>   State   UT    <br>   GridIDNo   12    <br>   Grid_ID   UT_12    <br>   Grid_ID_txt   12    <br>   Adoptions   <Null>    <br>   Static Grid ID   UT_12]]></description>
      <styleUrl>#poly-FFD600-1200-76</styleUrl>
      <Polygon>
        <outerBoundaryIs>
          <LinearRing>
            <tessellate>1</tessellate>
            <coordinates>
              -111.050899,41.341891,0
              -111.492197,41.345667,0
              -111.499158,40.884854,0
              -110.887545,40.879666,0
              -110.276038,40.874624,0
              -110.274277,40.998399,0
              -110.885814,40.997814,0
              -111.050414,40.997293,0
              -111.050899,41.341891,0
            </coordinates>
          </LinearRing>
        </outerBoundaryIs>
      </Polygon>
    </Placemark>
    <Placemark>
      <name>UT_1</name>
      <description><![CDATA[UT    <br>       <br>   OID   65    <br>   State   UT    <br>   GridIDNo   1    <br>   Grid_ID   UT_1    <br>   Grid_ID_txt   1    <br>   Adoptions   <Null>    <br>   Static Grid ID   UT_1]]></description>
      <styleUrl>#poly-FFD600-1200-76</styleUrl>
      <Polygon>
        <outerBoundaryIs>
          <LinearRing>
            <tessellate>1</tessellate>
            <coordinates>
              -112.704798,42.00114,0
              -112.809231,42.001399,0
              -112.988969,42.001845,0
              -113.258389,42.000368,0
              -113.316389,42.00005,0
              -113.707547,41.997905,0
              -113.92814,41.996696,0
              -114.038469,41.996091,0
              -114.038468,41.995403,0
              -114.038247,41.826934,0
              -114.038246,41.826698,0
              -113.931127,41.825648,0
              -113.319461,41.819794,0
              -112.707907,41.814084,0
              -112.704798,42.00114,0
            </coordinates>
          </LinearRing>
        </outerBoundaryIs>
      </Polygon>
    </Placemark>
    <Placemark>
      <name>UT_3</name>
      <description><![CDATA[UT    <br>       <br>   OID   66    <br>   State   UT    <br>   GridIDNo   3    <br>   Grid_ID   UT_3    <br>   Grid_ID_txt   3    <br>   Adoptions   <Null>    <br>   Static Grid ID   UT_3]]></description>
      <styleUrl>#poly-FFD600-1200-76</styleUrl>
      <Polygon>
        <outerBoundaryIs>
          <LinearRing>
            <tessellate>1</tessellate>
            <coordinates>
              -113.319461,41.819794,0
              -113.931127,41.825648,0
              -114.038256,41.826698,0
              -114.037801,41.369008,0
              -113.938965,41.368047,0
              -113.327107,41.362235,0
              -113.319461,41.819794,0
            </coordinates>
          </LinearRing>
        </outerBoundaryIs>
      </Polygon>
    </Placemark>
    <Placemark>
      <name>UT_8</name>
      <description><![CDATA[UT    <br>       <br>   OID   67    <br>   State   UT    <br>   GridIDNo   8    <br>   Grid_ID   UT_8    <br>   Grid_ID_txt   8    <br>   Adoptions   <Null>    <br>   Static Grid ID   UT_8]]></description>
      <styleUrl>#poly-FFD600-1200-76</styleUrl>
      <Polygon>
        <outerBoundaryIs>
          <LinearRing>
            <tessellate>1</tessellate>
            <coordinates>
              -113.327107,41.362235,0
              -113.938965,41.368047,0
              -114.037793,41.369008,0
              -114.037543,40.907938,0
              -113.94669,40.90706,0
              -113.334642,40.901292,0
              -113.327107,41.362235,0
            </coordinates>
          </LinearRing>
        </outerBoundaryIs>
      </Polygon>
    </Placemark>
    <Placemark>
      <name>CLOSED</name>
      <description><![CDATA[UT    <br>       <br>   OID   68    <br>   State   UT    <br>   GridIDNo   15    <br>   Grid_ID   CLOSED    <br>   Grid_ID_txt   15    <br>   Adoptions   <Null>    <br>   Static Grid ID   UT_15]]></description>
      <styleUrl>#poly-FFD600-1200-76</styleUrl>
      <Polygon>
        <outerBoundaryIs>
          <LinearRing>
            <tessellate>1</tessellate>
            <coordinates>
              -113.334642,40.901292,0
              -113.94669,40.90706,0
              -114.037526,40.907938,0
              -114.037462,40.443491,0
              -113.954304,40.442694,0
              -113.342067,40.43697,0
              -113.334642,40.901292,0
            </coordinates>
          </LinearRing>
        </outerBoundaryIs>
      </Polygon>
    </Placemark>
    <Placemark>
      <name>UT_21</name>
      <description><![CDATA[UT    <br>       <br>   OID   69    <br>   State   UT    <br>   GridIDNo   21    <br>   Grid_ID   UT_21    <br>   Grid_ID_txt   21    <br>   Adoptions   <Null>    <br>   Static Grid ID   UT_21]]></description>
      <styleUrl>#poly-FFD600-1200-76</styleUrl>
      <Polygon>
        <outerBoundaryIs>
          <LinearRing>
            <tessellate>1</tessellate>
            <coordinates>
              -113.342067,40.43697,0
              -113.954304,40.442694,0
              -114.037751,40.443494,0
              -114.039058,39.975688,0
              -113.961807,39.974954,0
              -113.349382,39.969274,0
              -113.342067,40.43697,0
            </coordinates>
          </LinearRing>
        </outerBoundaryIs>
      </Polygon>
    </Placemark>
    <Placemark>
      <name>UT_29</name>
      <description><![CDATA[UT    <br>       <br>   OID   70    <br>   State   UT    <br>   GridIDNo   29    <br>   Grid_ID   UT_29    <br>   Grid_ID_txt   29    <br>   Adoptions   <Null>    <br>   Static Grid ID   UT_29]]></description>
      <styleUrl>#poly-FFD600-1200-76</styleUrl>
      <Polygon>
        <outerBoundaryIs>
          <LinearRing>
            <tessellate>1</tessellate>
            <coordinates>
              -113.349382,39.969274,0
              -113.961807,39.974954,0
              -114.038373,39.975682,0
              -114.039753,39.504512,0
              -113.969199,39.503846,0
              -113.356588,39.498212,0
              -113.349382,39.969274,0
            </coordinates>
          </LinearRing>
        </outerBoundaryIs>
      </Polygon>
    </Placemark>
    <Placemark>
      <name>UT_37</name>
      <description><![CDATA[UT    <br>       <br>   OID   71    <br>   State   UT    <br>   GridIDNo   37    <br>   Grid_ID   UT_37    <br>   Grid_ID_txt   37    <br>   Adoptions   <Null>    <br>   Static Grid ID   UT_37]]></description>
      <styleUrl>#poly-FFD600-1200-76</styleUrl>
      <Polygon>
        <outerBoundaryIs>
          <LinearRing>
            <tessellate>1</tessellate>
            <coordinates>
              -113.356588,39.498212,0
              -113.969199,39.503846,0
              -114.039671,39.504511,0
              -114.041922,39.029991,0
              -113.976483,39.029379,0
              -113.363686,39.023791,0
              -113.356588,39.498212,0
            </coordinates>
          </LinearRing>
        </outerBoundaryIs>
      </Polygon>
    </Placemark>
    <Placemark>
      <name>UT_45</name>
      <description><![CDATA[UT    <br>       <br>   OID   72    <br>   State   UT    <br>   GridIDNo   45    <br>   Grid_ID   UT_45    <br>   Grid_ID_txt   45    <br>   Adoptions   <Null>    <br>   Static Grid ID   UT_45]]></description>
      <styleUrl>#poly-FFD600-1200-76</styleUrl>
      <Polygon>
        <outerBoundaryIs>
          <LinearRing>
            <tessellate>1</tessellate>
            <coordinates>
              -113.363686,39.023791,0
              -113.976483,39.029379,0
              -114.041954,39.029992,0
              -114.044522,38.552126,0
              -113.983657,38.551562,0
              -113.370677,38.54602,0
              -113.363686,39.023791,0
            </coordinates>
          </LinearRing>
        </outerBoundaryIs>
      </Polygon>
    </Placemark>
    <Placemark>
      <name>UT_53</name>
      <description><![CDATA[UT    <br>       <br>   OID   73    <br>   State   UT    <br>   GridIDNo   53    <br>   Grid_ID   UT_53    <br>   Grid_ID_txt   53    <br>   Adoptions   <Null>    <br>   Static Grid ID   UT_53]]></description>
      <styleUrl>#poly-FFD600-1200-76</styleUrl>
      <Polygon>
        <outerBoundaryIs>
          <LinearRing>
            <tessellate>1</tessellate>
            <coordinates>
              -113.370677,38.54602,0
              -113.983657,38.551562,0
              -114.04442,38.552126,0
              -114.046169,38.070914,0
              -113.990724,38.070404,0
              -113.377561,38.06491,0
              -113.370677,38.54602,0
            </coordinates>
          </LinearRing>
        </outerBoundaryIs>
      </Polygon>
    </Placemark>
    <Placemark>
      <name>UT_61</name>
      <description><![CDATA[UT    <br>       <br>   OID   74    <br>   State   UT    <br>   GridIDNo   61    <br>   Grid_ID   UT_61    <br>   Grid_ID_txt   61    <br>   Adoptions   <Null>    <br>   Static Grid ID   UT_61]]></description>
      <styleUrl>#poly-FFD600-1200-76</styleUrl>
      <Polygon>
        <outerBoundaryIs>
          <LinearRing>
            <tessellate>1</tessellate>
            <coordinates>
              -113.377561,38.06491,0
              -113.990724,38.070404,0
              -114.046008,38.070912,0
              -114.045924,37.586356,0
              -113.997683,37.585916,0
              -113.384338,37.58047,0
              -113.377561,38.06491,0
            </coordinates>
          </LinearRing>
        </outerBoundaryIs>
      </Polygon>
    </Placemark>
    <Placemark>
      <name>UT_69</name>
      <description><![CDATA[UT    <br>       <br>   OID   75    <br>   State   UT    <br>   GridIDNo   69    <br>   Grid_ID   UT_69    <br>   Grid_ID_txt   69    <br>   Adoptions   <Null>    <br>   Static Grid ID   UT_69]]></description>
      <styleUrl>#poly-FFD600-1200-76</styleUrl>
      <Polygon>
        <outerBoundaryIs>
          <LinearRing>
            <tessellate>1</tessellate>
            <coordinates>
              -113.384338,37.58047,0
              -113.997683,37.585916,0
              -114.046347,37.58636,0
              -114.043852,37.098465,0
              -114.04387,37.098466,0
              -114.043325,36.99209,0
              -114.043332,36.997288,0
              -114.005925,36.997277,0
              -113.707547,36.997197,0
              -113.392292,36.997112,0
              -113.391011,37.092713,0
              -113.384338,37.58047,0
            </coordinates>
          </LinearRing>
        </outerBoundaryIs>
      </Polygon>
    </Placemark>
    <Placemark>
      <name>UT_13</name>
      <description><![CDATA[UT    <br>       <br>   OID   76    <br>   State   UT    <br>   GridIDNo   13    <br>   Grid_ID   UT_13    <br>   Grid_ID_txt   13    <br>   Adoptions   <Null>    <br>   Static Grid ID   UT_13]]></description>
      <styleUrl>#poly-FFD600-1200-76</styleUrl>
      <Polygon>
        <outerBoundaryIs>
          <LinearRing>
            <tessellate>1</tessellate>
            <coordinates>
              -109.05152,41.000565,0
              -109.662843,40.999463,0
              -109.664635,40.869729,0
              -109.670912,40.405671,0
              -109.059419,40.400968,0
              -109.053336,40.864981,0
              -109.047633,40.864938,0
              -109.049802,41.000473,0
              -109.051521,41.000466,0
              -109.05152,41.000565,0
            </coordinates>
          </LinearRing>
        </outerBoundaryIs>
      </Polygon>
    </Placemark>
  </Document>
</kml>
